OBJECT_NAME,OBJECT_ID,EPOCH,MEAN_MOTION,ECCENTRICITY,INCLINATION,RA_OF_ASC_NODE,ARG_OF_PERICENTER,MEAN_ANOMALY,EPHEMERIS_TYPE,CLASSIFICATION_TYPE,NORAD_CAT_ID,ELEMENT_SET_NO,REV_AT_EPOCH,BSTAR,MEAN_MOTION_DOT,MEAN_MOTION_DDOT
LEMUR-2-STARLIGHT,2025-276DY,2026-06-16T10:27:29.531808,14.99035432,.00151766,97.5266,238.1002,130.0565,230.1993,0,U,66783,999,3008,.3542484E-3,.4249E-4,0
LEMUR-2-TARTIFLETTE,2025-276DZ,2026-06-16T16:49:47.998272,14.99067168,.0014133,97.5269,238.3629,135.8290,224.4064,0,U,66784,999,3012,.33958E-3,.4073E-4,0
LEMUR-2-VUKASIN,2025-276EA,2026-06-16T10:17:07.576224,15.00361961,.00061779,97.5310,238.3939,125.5082,234.6719,0,U,66785,999,3003,.38946927E-3,.4834E-4,0
LEMUR-2-HOTSPUR-TOM,2025-276EB,2026-06-16T16:39:03.017088,14.98957438,.0015522,97.5264,238.3374,129.3420,230.9182,0,U,66786,999,3005,.41682E-3,.5001E-4,0
LEMUR-2-MYRA,2025-276EC,2026-06-16T17:26:32.692992,15.00240617,.001654,97.5218,238.6228,142.8953,217.3418,0,U,66787,999,3014,.52877E-3,.658E-4,0
LEMUR-2 FIKRETDENGIZ,2026-004A,2026-06-16T19:09:21.314304,14.88322174,.0010078,97.8011,166.3621,134.2237,225.9809,0,U,67363,999,2322,.3779E-3,.3445E-4,0
TWILIGHT-1 OBJECT B,2026-004B,2026-06-16T18:07:29.103744,14.87700909,.0009928,97.8061,166.3352,125.6836,234.5306,0,U,67364,999,2322,.17377E-3,.153E-4,0
LEMUR-2-MARIO-SOUSA,2026-004C,2026-06-16T13:55:25.943232,14.88509480,.0009633,97.7985,166.1438,135.4367,224.7626,0,U,67365,999,2320,.33829E-3,.3092E-4,0
LEMUR-2-SONNENBLUME,2026-004E,2026-06-16T13:53:00.081024,14.88313380,.0009107,97.7981,166.1270,136.8564,223.3368,0,U,67367,999,2320,.21844E-3,.1967E-4,0
LEMUR-2-WOBLER,2026-004F,2026-06-16T13:43:44.527296,14.88513398,.0009528,97.8036,166.2423,127.1917,233.0171,0,U,67368,999,2320,.29761E-3,.2714E-4,0
LEMUR-2-GRAM-E-SUE,2026-004H,2026-06-16T13:30:14.891040,14.88468982,.0008148,97.7968,166.1265,137.4251,222.7599,0,U,67370,999,2320,.19912E-3,.1795E-4,0
LEMUR-2-KATIE,2026-004AA,2026-06-16T13:12:52.589952,14.90045308,.0004864,97.8033,166.5718,94.5349,265.6425,0,U,67387,999,2321,.32984E-3,.313E-4,0
LEMUR-2-HCS-BAZUS,2026-004AB,2026-06-16T18:01:38.134848,14.90067576,.0004442,97.8018,166.7507,90.9849,269.1878,0,U,67388,999,2324,.49753E-3,.4752E-4,0
